#dP2020  6 26  0  0  0.00000000      97 __u+U IGS14 FIT  IAC
## 2111 432000.00000000   900.00000000 59026 0.0000000000000
+  122   C01C02C03C04C05C06C07C08C09C10C11C12C13C14C16C19C20
+        C21C22C23C24C25C26C27C28C29C30C32C33C34C35C36C37C38
+        C39C40C43C44C45C46C60E01E02E03E04E05E07E08E09E11E12
+        E13E14E15E18E19E21E24E25E26E27E30E31E33E36G01G02G03
+        G04G05G06G07G08G09G10G11G12G13G14G15G16G17G18G19G20
+        G21G22G24G25G26G27G28G29G30G31G32J01J02J03J07R01R02
+        R03R04R05R07R08R09R11R12R13R14R15R16R17R18R19R20R21
+        R23R24R26  0  0  0  0  0  0  0  0  0  0  0  0  0  0
++         0  0  0  0  0  0  0  0  0  0  0  0  0  0  0  0  0
++         0  0  0  0  0  0  0  0  0  0  0  0  0  0  0  0  0
++         0  0  0  0  0  0  0  0  0  0  0  0  0  0  0  0  0
++         0  0  0  0  0  0  0  0  0  0  0  0  0  0  0  0  0
++         0  0  0  0  0  0  0  0  0  0  0  0  0  0  0  0  0
++         0  0  0  0  0  0  0  0  0  0  0  0  0  0  0  0  0
++         0  0  0  0  0  0  0  0  0  0  0  0  0  0  0  0  0
++         0  0  0  0  0  0  0  0  0  0  0  0  0  0  0  0  0
%c M  cc GPS ccc cccc cccc cccc cccc ccccc ccccc ccccc ccccc
%c cc cc ccc ccc cccc cccc cccc cccc ccccc ccccc ccccc ccccc
%f  1.2500000  1.025000000  0.00000000000  0.000000000000000
%f  0.0000000  0.000000000  0.00000000000  0.000000000000000
%i    0    0    0    0      0      0      0      0         0
%i    0    0    0    0      0      0      0      0         0
/* INFORMATION & ANALYSIS CENTER (IAC)            FINAL DATA
/* S/V CLOCKS ARE ALIGNED TO GNSS TIME                      
/* G:C1WC2W R:C1PC2P E:C1XC5X C:C2IC6I J:C1CC2S             
/* PCV:IGS14_2108 OL/AL:FES2004  NONE     YN ORB:CoN CLK:CoN
*  2020 06 26  5 30  0.00000000
PC01 -34299.001261  24504.713064   -278.209928 999999.999999
PC02   4381.151009  41937.710117    -54.406717    257.164730
PC03 -14746.312254  39463.075520    777.785717    847.954804
PC04 -39590.955657  14443.508751    590.016131 999999.999999
PC05  21854.529860  36045.473157   -205.466644   -523.095715
PC06 -18594.371633  20895.423439 -31272.726728    763.776719
PC07 -19986.421654  36754.469275   2242.426627     15.829073
PC08  -4546.229621  30408.683882  29098.820921   -335.063182
PC09   -194.868838  24550.555346 -33986.529907    635.294691
PC10  -8394.361277  38182.768166  15378.087662   -252.539987
PC11 -23672.221250   1591.196584  14701.986196   -452.155074
PC12 -25517.933142 -10927.368973  -2689.196801    412.315179
PC13   6145.951810  37871.555866  17867.903298    510.558396
PC14 -23417.628470  12191.925171   8975.243436    583.068207
PC16 -15151.066235  21727.742864 -32769.138194   -610.062832
PC19  20913.911243 -18494.664532    105.788096    455.893435
PC20  22425.465702  -5079.633174 -15816.912719   -846.685951
PC21 -10541.576038 -11963.667744  22923.900153   -576.566213
PC22   7292.336458 -21461.353742  16310.888786   -780.017753
PC23    799.558784  27276.557762  -5809.853766   -849.028799
PC24 -16678.332278  -4626.253097 -21887.185075   -781.669836
PC25 -10640.389298  16832.055171 -19556.247056   -664.851106
PC26 -13103.828278 -21597.848799 -11826.648389    732.055018
PC27  20122.112817  15663.500681  11295.497721    353.903709
PC28   1689.050536  16908.873132  22135.611415   -207.709308
PC29  17336.009871  -8938.201440 -19966.988790    247.585978
PC30  26918.445569   4485.399380  -5788.381412    337.505964
PC32  10677.297356  11836.732854 -22886.196689   -876.779087
PC33 -20856.173471  18521.758528     12.559077   -807.145228
PC34 -26882.294569  -4238.836756   6219.457711   -846.087082
PC35  -2055.100437 -16871.179333 -22144.450376   -779.046607
PC36  11165.725493 -16348.765769  19699.840927   -854.029396
PC37  12314.603474  22370.939386  11285.015687   -857.292264
PC38  -3583.896193  33016.467685  26039.090417     85.524875
PC39 -12112.359014  23020.781658 -33194.191336     18.218904
PC40 -17807.815994  36228.403358  11825.313606     55.917218
PC43 -17707.602380   8712.717797  19730.795536   -255.200302
PC44 -20482.792191 -15152.017747 -11431.282265 999999.999999
PC45   -899.601640 -27264.921781   5863.306511    164.868857
PC46  16568.699625   4021.613720  22109.322974    766.311442
PC60   7263.318417  41472.208194   2063.792172 999999.999999
PE01   3670.674626  25347.611130  14836.215342   -885.552958
PE02  -3734.838601 -25294.470440 -14908.689072    143.041693
PE03  -8149.847319 -15373.768345  23950.632838   -313.941831
PE04  25255.680837   3929.148368 -14922.375651   -553.473618
PE05  13919.493012 -17918.970602  19020.597253   -368.436145
PE07 -27698.212370   9971.695665  -3006.935941   -400.705956
PE08 -25360.174028  -3548.812327  14841.648384   6158.420863
PE09  27616.024305 -10214.333125   3146.824242   6016.389529
PE11  18807.738335  -2675.426756 -22705.360358   3702.116668
PE12  23947.713166  15056.816798  -8687.057015   5736.629903
PE13 -18907.683891   2448.226855  22643.866801    401.873779
PE14  25731.550146 -10081.676776 -13799.871533  -1062.773176
PE15 -24022.984490 -14838.800809   8892.052443    862.185307
PE18 -25848.958123    282.734546   2417.801449  -1164.494209
PE19   5795.363005  16003.754554 -24206.467593     12.465232
PE21  -9273.035196  27933.998035  -3110.130828   -606.682248
PE24  17236.887990 -13835.358810  19672.023536   5382.918268
PE25   9359.121624 -27897.331488   3249.050449   -512.712682
PE26  -2478.436155  18669.028745  22835.375539   3030.009267
PE27 -17087.059375  14227.158921 -19534.691103    190.488523
PE30 -14690.445492  -8292.469827 -24329.215247   3796.183279
PE31  14835.765627   7762.601990  24416.204801   -473.004892
PE33  15022.486980  23417.302325  10095.218267   -465.651536
PE36   2683.589193 -18309.469905 -23104.151212    542.080041
PG01 -18373.053278  -9079.502173  16852.108516     16.693952
PG02  13591.504355  22768.509488   2544.847485   -477.950312
PG03      0.000000      0.000000      0.000000 999999.999999
PG04 -26574.637674   -328.694158   -275.132947   -107.186341
PG05   6594.306746  17074.160604 -19317.856669    -15.402247
PG06   4177.483175  23162.624214  12313.840761   -294.383911
PG07 -11978.178065   9575.449762 -21341.006752   -313.148465
PG08 -23346.188962  -6850.946737 -10944.919068    -38.854215
PG09 -22675.137885   8475.687730 -10997.635040   -242.994277
PG10  11080.796388 -23843.104382   2787.070120   -382.205509
PG11 -23400.021378 -11442.975955   3728.056580   -238.237056
PG12  16951.238626  -1109.624731  20139.567653    101.548241
PG13  16750.094626  13096.847182 -16096.223957     21.495064
PG14  -1794.328754 -15472.387432  21879.465005     -3.161981
PG15  24226.109806   5009.620978 -10477.103328   -221.704326
PG16  -6584.278569 -15230.815934 -20850.573693   -175.094855
PG17  -8366.387579  13904.979331  21439.589591    286.554882
PG18  11740.425215  -9846.060871 -21704.537959    230.423337
PG19    220.495788  14669.148238  21841.599241   -140.190801
PG20  15214.638782 -19500.894017  -9447.220884    527.434076
PG21    768.895770 -19995.005728 -16878.302771     16.245753
PG22 -14650.724182  -6311.771759  21445.943516   -775.895845
PG24  19827.637858   9830.227524  14748.422962    -14.855439
PG25  18331.206979 -11848.357480  14714.863425     16.807452
PG26   2135.539015 -23379.918169 -12236.161013    232.275190
PG27 -14593.130462 -12397.307687 -18694.610383   -330.249487
PG28 -11842.505969  23401.221193   5237.364898    705.270835
PG29  25160.694844  -3720.912398  -7749.427455   -136.435458
PG30  -4083.424756  19335.421543 -17596.997187   -249.499237
PG31  -4673.276506 -23644.489296  10586.039338    -51.595255
PG32   6735.938656 -14928.134089  20968.598324    306.664622
PJ01 -35520.956028  22374.934071   1034.716762   -281.583993
PJ02 -21360.634218  29716.492184 -16352.184183     -0.755578
PJ03 -27939.637100  23845.239992  25892.778833     -4.543055
PJ07 -25399.405804  33646.725890    -18.791685     -0.011681
PR01 -18878.440962  15582.141931  -7136.461664     63.627369
PR02  -1454.345805  12844.557822 -21955.725863    433.388069
PR03  14947.277283   2537.074013 -20453.555843     17.435873
PR04  22596.294677  -9233.351461  -7372.131079     54.097040
PR05  17558.744687 -15622.717486   9905.979508     52.988371
PR07 -15444.477533  -2138.265387  20240.976183    -37.907411
PR08 -22645.927819   9113.478739   7480.863065    -53.077178
PR09  -4508.774528 -23627.564357  -8584.534684    140.088592
PR11 -10735.495276   6156.853158 -22280.317000    -28.405229
PR12  -5798.604988  21363.260841 -12660.722386    142.127819
PR13   2683.806850  24934.461495   4627.958332    -40.455160
PR14   9405.262681  13705.822265  19354.576493     52.686139
PR15  10704.529204  -5199.000931  22584.577165    106.906745
PR16   5234.234713 -21745.861518  12132.498454     -4.370885
PR17  21544.654630  13520.251085   2179.058804    336.170576
PR18  20662.287556   4581.740487 -14190.499355     40.144427
PR19   9377.163801  -6233.687081 -22894.353059    -99.618932
PR20  -9534.150790 -15287.416477 -18076.602477   -415.203965
PR21 -21777.301586 -13201.729715  -1203.553708   -133.948044
PR23  -2645.304130  10449.553015  23104.620480    314.635344
PR24  10074.687364  15654.876340  17454.917757      4.029858
PR26  -5192.381533 -13816.050157 -20789.111642   -392.025216
EOF
